[{"OBJECT_NAME":"PERSEUS-M1","OBJECT_ID":"2014-033AF","EPOCH":"2026-03-09T17:46:59.181600","MEAN_MOTION":14.95254642,"ECCENTRICITY":0.00100578,"INCLINATION":97.9555,"RA_OF_ASC_NODE":11.3245,"ARG_OF_PERICENTER":268.322,"MEAN_ANOMALY":91.6848,"EPHEMERIS_TYPE":0,"CLASSIFICATION_TYPE":"U","NORAD_CAT_ID":40039,"ELEMENT_SET_NO":999,"REV_AT_EPOCH":63577,"BSTAR":0.00021947731,"MEAN_MOTION_DOT":2.357e-5,"MEAN_MOTION_DDOT":0},{"OBJECT_NAME":"STARLINK-3116","OBJECT_ID":"2021-082S","EPOCH":"2026-03-09T22:32:59.013888","MEAN_MOTION":14.97513823,"ECCENTRICITY":0.00026435,"INCLINATION":69.9979,"RA_OF_ASC_NODE":274.6179,"ARG_OF_PERICENTER":268.8124,"MEAN_ANOMALY":91.2732,"EPHEMERIS_TYPE":0,"CLASSIFICATION_TYPE":"U","NORAD_CAT_ID":49146,"ELEMENT_SET_NO":999,"REV_AT_EPOCH":24764,"BSTAR":0.00021077338,"MEAN_MOTION_DOT":2.371e-5,"MEAN_MOTION_DDOT":0}]
